SOYUZ-MS 28             
1 66664U 25275A   25343.50984768  .00014141  00000+0  26026-3 0  9992
2 66664  51.6310 158.4724 0003400 223.8185 136.2534 15.49447168  1287
1998-067XS              
1 66906U 98067XS  25343.50652909  .00033864  00000+0  59212-3 0  9995
2 66906  51.6300 158.4502 0003981 188.2752 171.8172 15.50312686  1110
1998-067XT              
1 66907U 98067XT  25343.50529068  .00076342  00000+0  12921-2 0  9998
2 66907  51.6307 158.4423 0004803 208.5081 151.5646 15.50864429  1113
1998-067XU              
1 66908U 98067XU  25343.63395853  .00074609  00000+0  12603-2 0  9997
2 66908  51.6301 157.8011 0005002 207.4860 152.5865 15.50928353  1132
SILVERSAT               
1 66909U 98067XV  25343.63378919  .00081682  00000+0  13733-2 0  9996
2 66909  51.6303 157.7998 0004874 209.5362 150.5352 15.51022940  1131
1998-067XW              
1 66910U 98067XW  25342.92393849  .00070418  00000+0  11827-2 0  9995
2 66910  51.6296 161.3100 0005924 189.6176 170.4701 15.51111527  1025
1998-067XX              
1 66911U 98067XX  25343.11695649  .00085582  00000+0  14246-2 0  9997
2 66911  51.6296 160.3494 0005703 191.2268 168.8595 15.51276485  1046
1998-067XY              
1 66912U 98067XY  25342.79680750  .00056065  00000+0  96272-3 0  9992
2 66912  51.6301 161.9610 0005043 202.8278 157.2488 15.50590071   993
