CCSDS_OMM_VERS = 2.0
CREATION_DATE  = 
ORIGINATOR     = 

OBJECT_NAME    = SOYUZ-MS 28
OBJECT_ID      = 2025-275A
CENTER_NAME    = EARTH
REF_FRAME      = TEME
TIME_SYSTEM    = UTC
MEAN_ELEMENT_THEORY = SGP/SGP4

EPOCH          = 2025-12-09T12:14:10.839552
MEAN_MOTION    = 15.49447168
ECCENTRICITY   = .00034
INCLINATION    = 51.6310
RA_OF_ASC_NODE = 158.4724
ARG_OF_PERICENTER = 223.8185
MEAN_ANOMALY   = 136.2534

EPHEMERIS_TYPE = 0
CLASSIFICATION_TYPE = U
NORAD_CAT_ID   = 66664
ELEMENT_SET_NO = 999
REV_AT_EPOCH   = 128
BSTAR          = .26025969E-3
MEAN_MOTION_DOT = .14141E-3
MEAN_MOTION_DDOT = 0

CCSDS_OMM_VERS = 2.0
CREATION_DATE  = 
ORIGINATOR     = 

OBJECT_NAME    = 1998-067XS
OBJECT_ID      = 1998-067XS
CENTER_NAME    = EARTH
REF_FRAME      = TEME
TIME_SYSTEM    = UTC
MEAN_ELEMENT_THEORY = SGP/SGP4

EPOCH          = 2025-12-09T12:09:24.113376
MEAN_MOTION    = 15.50312686
ECCENTRICITY   = .00039811
INCLINATION    = 51.6300
RA_OF_ASC_NODE = 158.4502
ARG_OF_PERICENTER = 188.2752
MEAN_ANOMALY   = 171.8172

EPHEMERIS_TYPE = 0
CLASSIFICATION_TYPE = U
NORAD_CAT_ID   = 66906
ELEMENT_SET_NO = 999
REV_AT_EPOCH   = 111
BSTAR          = .59211588E-3
MEAN_MOTION_DOT = .33864E-3
MEAN_MOTION_DDOT = 0

CCSDS_OMM_VERS = 2.0
CREATION_DATE  = 
ORIGINATOR     = 

OBJECT_NAME    = 1998-067XT
OBJECT_ID      = 1998-067XT
CENTER_NAME    = EARTH
REF_FRAME      = TEME
TIME_SYSTEM    = UTC
MEAN_ELEMENT_THEORY = SGP/SGP4

EPOCH          = 2025-12-09T12:07:37.114752
MEAN_MOTION    = 15.50864429
ECCENTRICITY   = .00048036
INCLINATION    = 51.6307
RA_OF_ASC_NODE = 158.4423
ARG_OF_PERICENTER = 208.5081
MEAN_ANOMALY   = 151.5646

EPHEMERIS_TYPE = 0
CLASSIFICATION_TYPE = U
NORAD_CAT_ID   = 66907
ELEMENT_SET_NO = 999
REV_AT_EPOCH   = 111
BSTAR          = .12921241E-2
MEAN_MOTION_DOT = .76342E-3
MEAN_MOTION_DDOT = 0

CCSDS_OMM_VERS = 2.0
CREATION_DATE  = 
ORIGINATOR     = 

OBJECT_NAME    = 1998-067XU
OBJECT_ID      = 1998-067XU
CENTER_NAME    = EARTH
REF_FRAME      = TEME
TIME_SYSTEM    = UTC
MEAN_ELEMENT_THEORY = SGP/SGP4

EPOCH          = 2025-12-09T15:12:54.016992
MEAN_MOTION    = 15.50928353
ECCENTRICITY   = .00050029
INCLINATION    = 51.6301
RA_OF_ASC_NODE = 157.8011
ARG_OF_PERICENTER = 207.4860
MEAN_ANOMALY   = 152.5865

EPHEMERIS_TYPE = 0
CLASSIFICATION_TYPE = U
NORAD_CAT_ID   = 66908
ELEMENT_SET_NO = 999
REV_AT_EPOCH   = 113
BSTAR          = .12603324E-2
MEAN_MOTION_DOT = .74609E-3
MEAN_MOTION_DDOT = 0

CCSDS_OMM_VERS = 2.0
CREATION_DATE  = 
ORIGINATOR     = 

OBJECT_NAME    = SILVERSAT
OBJECT_ID      = 1998-067XV
CENTER_NAME    = EARTH
REF_FRAME      = TEME
TIME_SYSTEM    = UTC
MEAN_ELEMENT_THEORY = SGP/SGP4

EPOCH          = 2025-12-09T15:12:39.386016
MEAN_MOTION    = 15.51022940
ECCENTRICITY   = .00048745
INCLINATION    = 51.6303
RA_OF_ASC_NODE = 157.7998
ARG_OF_PERICENTER = 209.5362
MEAN_ANOMALY   = 150.5352

EPHEMERIS_TYPE = 0
CLASSIFICATION_TYPE = U
NORAD_CAT_ID   = 66909
ELEMENT_SET_NO = 999
REV_AT_EPOCH   = 113
BSTAR          = .13732623E-2
MEAN_MOTION_DOT = .81682E-3
MEAN_MOTION_DDOT = 0

CCSDS_OMM_VERS = 2.0
CREATION_DATE  = 
ORIGINATOR     = 

OBJECT_NAME    = 1998-067XW
OBJECT_ID      = 1998-067XW
CENTER_NAME    = EARTH
REF_FRAME      = TEME
TIME_SYSTEM    = UTC
MEAN_ELEMENT_THEORY = SGP/SGP4

EPOCH          = 2025-12-08T22:10:28.285536
MEAN_MOTION    = 15.51111527
ECCENTRICITY   = .0005924
INCLINATION    = 51.6296
RA_OF_ASC_NODE = 161.3100
ARG_OF_PERICENTER = 189.6176
MEAN_ANOMALY   = 170.4701

EPHEMERIS_TYPE = 0
CLASSIFICATION_TYPE = U
NORAD_CAT_ID   = 66910
ELEMENT_SET_NO = 999
REV_AT_EPOCH   = 102
BSTAR          = .11826614E-2
MEAN_MOTION_DOT = .70418E-3
MEAN_MOTION_DDOT = 0

CCSDS_OMM_VERS = 2.0
CREATION_DATE  = 
ORIGINATOR     = 

OBJECT_NAME    = 1998-067XX
OBJECT_ID      = 1998-067XX
CENTER_NAME    = EARTH
REF_FRAME      = TEME
TIME_SYSTEM    = UTC
MEAN_ELEMENT_THEORY = SGP/SGP4

EPOCH          = 2025-12-09T02:48:25.040736
MEAN_MOTION    = 15.51276485
ECCENTRICITY   = .00057034
INCLINATION    = 51.6296
RA_OF_ASC_NODE = 160.3494
ARG_OF_PERICENTER = 191.2268
MEAN_ANOMALY   = 168.8595

EPHEMERIS_TYPE = 0
CLASSIFICATION_TYPE = U
NORAD_CAT_ID   = 66911
ELEMENT_SET_NO = 999
REV_AT_EPOCH   = 104
BSTAR          = .14245982E-2
MEAN_MOTION_DOT = .85582E-3
MEAN_MOTION_DDOT = 0

CCSDS_OMM_VERS = 2.0
CREATION_DATE  = 
ORIGINATOR     = 

OBJECT_NAME    = 1998-067XY
OBJECT_ID      = 1998-067XY
CENTER_NAME    = EARTH
REF_FRAME      = TEME
TIME_SYSTEM    = UTC
MEAN_ELEMENT_THEORY = SGP/SGP4

EPOCH          = 2025-12-08T19:07:24.168000
MEAN_MOTION    = 15.50590071
ECCENTRICITY   = .00050436
INCLINATION    = 51.6301
RA_OF_ASC_NODE = 161.9610
ARG_OF_PERICENTER = 202.8278
MEAN_ANOMALY   = 157.2488

EPHEMERIS_TYPE = 0
CLASSIFICATION_TYPE = U
NORAD_CAT_ID   = 66912
ELEMENT_SET_NO = 999
REV_AT_EPOCH   = 99
BSTAR          = .9627216E-3
MEAN_MOTION_DOT = .56065E-3
MEAN_MOTION_DDOT = 0

